NORAD_CAT_ID,OBJECT_NAME,OBJECT_TYPE,EPOCH,MEAN_MOTION,ECCENTRICITY,INCLINATION,RA_OF_ASC_NODE,ARG_OF_PERICENTER,MEAN_ANOMALY,BSTAR,MEAN_MOTION_DOT,MEAN_MOTION_DDOT,TLE_LINE0,TLE_LINE1,TLE_LINE2,SEMIMAJOR_AXIS,PERIOD,APOGEE,PERIGEE,DECAYED
53633.0,STARLINK-4593,PAYLOAD,2023-05-23 15:45:34,15.08846222,0.0001436,53.2165,127.7397,82.0462,278.0693,-9.0628e-06,-4.32e-06,0.0,0 STARLINK-4593,1 53633U 22104AX  23143.65665129 -.00000432  00000-0 -90628-5 0  9993,2 53633  53.2165 127.7397 0001436  82.0462 278.0693 15.08846222 41756,6917.861,95.437,540.72,538.733,0.0
53633.0,STARLINK-4593,PAYLOAD,2023-05-24 07:39:25,15.08851736,0.0001394,53.2164,124.7659,82.1547,277.9603,-6.0381e-06,-3.84e-06,0.0,0 STARLINK-4593,1 53633U 22104AX  23144.31904335 -.00000384  00000-0 -60381-5 0  9991,2 53633  53.2164 124.7659 0001394  82.1547 277.9603 15.08851736 41161,6917.845,95.437,540.674,538.745,0.0
53633.0,STARLINK-4593,PAYLOAD,2023-05-26 04:10:13,15.08839616,0.0001422,53.216,116.4399,97.4936,262.6218,2.9276e-06,-2.41e-06,0.0,0 STARLINK-4593,1 53633U 22104AX  23146.17376849 -.00000241  00000-0  29276-5 0  9999,2 53633  53.2160 116.4399 0001422  97.4936 262.6218 15.08839616 41446,6917.882,95.438,540.73,538.763,0.0
53633.0,STARLINK-4593,PAYLOAD,2023-05-26 05:45:36,15.08840477,0.0001407,53.216,116.1423,96.7355,263.3798,8.1766e-06,-1.58e-06,0.0,0 STARLINK-4593,1 53633U 22104AX  23146.24000769 -.00000158  00000-0  81766-5 0  9991,2 53633  53.2160 116.1423 0001407  96.7355 263.3798 15.08840477 42147,6917.879,95.438,540.717,538.771,0.0
53633.0,STARLINK-4593,PAYLOAD,2023-05-27 07:11:47,15.0883601,0.0001436,53.2164,111.3814,91.4144,268.7013,5.3402e-06,-2.03e-06,0.0,0 STARLINK-4593,1 53633U 22104AX  23147.29985233 -.00000203  00000-0  53402-5 0  9992,2 53633  53.2164 111.3814 0001436  91.4144 268.7013 15.08836010 41610,6917.893,95.438,540.751,538.764,0.0
53633.0,STARLINK-4593,PAYLOAD,2023-05-27 15:08:42,15.0884014,0.0001466,53.2167,109.8962,89.3397,270.7763,4.322e-05,4e-06,0.0,0 STARLINK-4593,1 53633U 22104AX  23147.63104922  .00000400  00000-0  43220-4 0  9992,2 53633  53.2167 109.8962 0001466  89.3397 270.7763 15.08840140 42354,6917.88,95.438,540.759,538.731,0.0
53633.0,STARLINK-4593,PAYLOAD,2023-05-28 02:16:24,15.08845956,0.000136,53.2162,107.8145,84.8035,275.3112,0.00010787,1.43e-05,0.0,0 STARLINK-4593,1 53633U 22104AX  23148.09472273  .00001430  00000-0  10787-3 0  9995,2 53633  53.2162 107.8145 0001360  84.8035 275.3112 15.08845956 41732,6917.862,95.437,540.668,538.786,0.0
53633.0,STARLINK-4593,PAYLOAD,2023-05-28 03:51:47,15.08847505,0.0001378,53.2161,107.517,86.3077,273.8072,0.00012313,1.673e-05,0.0,0 STARLINK-4593,1 53633U 22104AX  23148.16096139  .00001673  00000-0  12313-3 0  9992,2 53633  53.2161 107.5170 0001378  86.3077 273.8072 15.08847505 42436,6917.857,95.437,540.676,538.769,0.0
53633.0,STARLINK-4593,PAYLOAD,2023-05-28 21:21:02,15.08837701,0.0001315,53.216,104.2459,85.3856,274.7287,3.0022e-05,1.9e-06,0.0,0 STARLINK-4593,1 53633U 22104AX  23148.88961046  .00000190  00000-0  30022-4 0  9990,2 53633  53.2160 104.2459 0001315  85.3856 274.7287 15.08837701 42541,6917.887,95.438,540.662,538.843,0.0
53633.0,STARLINK-4593,PAYLOAD,2023-05-29 03:42:34,15.08840092,0.000134,53.216,103.0547,89.198,270.9166,6.3984e-05,7.31e-06,0.0,0 STARLINK-4593,1 53633U 22104AX  23149.15456718  .00000731  00000-0  63984-4 0  9990,2 53633  53.2160 103.0547 0001340  89.1980 270.9166 15.08840092 41892,6917.88,95.438,540.672,538.818,0.0
53633.0,STARLINK-4593,PAYLOAD,2023-05-29 06:53:20,15.08840153,0.0001412,53.2175,102.4616,89.999,270.1163,4.0227e-05,3.52e-06,0.0,0 STARLINK-4593,1 53633U 22104AX  23149.28704833  .00000352  00000-0  40227-4 0  9992,2 53633  53.2175 102.4616 0001412  89.9990 270.1163 15.08840153 42604,6917.88,95.438,540.722,538.768,0.0
53633.0,STARLINK-4593,PAYLOAD,2023-05-30 03:33:22,15.08839511,0.000117,53.2158,98.5965,89.4989,270.6137,-4.5392e-05,-1.01e-05,0.0,0 STARLINK-4593,1 53633U 22104AX  23150.14817254 -.00001010  00000-0 -45392-4 0  9993,2 53633  53.2158  98.5965 0001170  89.4989 270.6137 15.08839511 42041,6917.882,95.438,540.556,538.937,0.0
53633.0,STARLINK-4593,PAYLOAD,2023-05-30 06:44:08,15.08840736,0.0001277,53.2162,98.0017,89.7895,270.3243,-5.1091e-05,-1.101e-05,0.0,0 STARLINK-4593,1 53633U 22104AX  23150.28065173 -.00001101  00000-0 -51091-4 0  9997,2 53633  53.2162  98.0017 0001277  89.7895 270.3243 15.08840736 42750,6917.878,95.438,540.627,538.86,0.0
53633.0,STARLINK-4593,PAYLOAD,2023-05-31 03:24:09,15.08836319,0.0001208,53.2168,94.1361,90.0034,270.1096,4.3875e-05,4.1e-06,0.0,0 STARLINK-4593,1 53633U 22104AX  23151.14177465  .00000410  00000-0  43875-4 0  9992,2 53633  53.2168  94.1361 0001208  90.0034 270.1096 15.08836319 42889,6917.892,95.438,540.592,538.921,0.0
53633.0,STARLINK-4593,PAYLOAD,2023-05-31 20:53:23,15.08838774,0.0001214,53.2166,90.8653,96.3859,263.7271,5.3329e-05,5.61e-06,0.0,0 STARLINK-4593,1 53633U 22104AX  23151.87041512  .00000561  00000-0  53329-4 0  9997,2 53633  53.2166  90.8653 0001214  96.3859 263.7271 15.08838774 42997,6917.884,95.438,540.589,538.909,0.0
53633.0,STARLINK-4593,PAYLOAD,2023-06-01 01:39:33,15.08841319,0.0001159,53.2164,89.973,95.3893,264.7231,7.1394e-05,8.49e-06,0.0,0 STARLINK-4593,1 53633U 22104AX  23152.06913304  .00000849  00000-0  71394-4 0  9997,2 53633  53.2164  89.9730 0001159  95.3893 264.7231 15.08841319 42339,6917.876,95.437,540.543,538.94,0.0
53633.0,STARLINK-4593,PAYLOAD,2023-06-01 04:50:19,15.088453,0.0001176,53.2164,89.3783,95.5043,264.6083,0.00010348,1.36e-05,0.0,0 STARLINK-4593,1 53633U 22104AX  23152.20160952  .00001360  00000-0  10348-3 0  9996,2 53633  53.2164  89.3783 0001176  95.5043 264.6083 15.08845300 43046,6917.864,95.437,540.543,538.916,0.0
53633.0,STARLINK-4593,PAYLOAD,2023-06-02 03:05:43,15.08840542,0.000118,53.2165,85.2143,101.3681,258.7444,4.4703e-05,4.24e-06,0.0,0 STARLINK-4593,1 53633U 22104AX  23153.12897472  .00000424  00000-0  44703-4 0  9995,2 53633  53.2165  85.2143 0001180 101.3681 258.7444 15.08840542 42497,6917.879,95.438,540.56,538.927,0.0
53633.0,STARLINK-4593,PAYLOAD,2023-06-02 04:41:06,15.08840733,0.0001248,53.2172,84.9144,94.4945,265.619,4.5321e-05,4.34e-06,0.0,0 STARLINK-4593,1 53633U 22104AX  23153.19521476  .00000434  00000-0  45321-4 0  9998,2 53633  53.2172  84.9144 0001248  94.4945 265.6190 15.08840733 43197,6917.878,95.438,540.606,538.88,0.0
53633.0,STARLINK-4593,PAYLOAD,2023-06-03 04:31:53,15.08845232,0.0001129,53.2165,80.4572,95.0353,265.0768,2.6108e-05,1.28e-06,0.0,0 STARLINK-4593,1 53633U 22104AX  23154.18881337  .00000128  00000-0  26108-4 0  9995,2 53633  53.2165  80.4572 0001129  95.0353 265.0768 15.08845232 42657,6917.864,95.437,540.51,538.948,0.0
53633.0,STARLINK-4593,PAYLOAD,2023-06-03 18:50:22,15.08835244,0.0001113,53.2165,77.7807,93.1962,266.9158,1.8425e-06,-2.58e-06,0.0,0 STARLINK-4593,1 53633U 22104AX  23154.78498076 -.00000258  00000-0  18425-5 0  9994,2 53633  53.2165  77.7807 0001113  93.1962 266.9158 15.08835244 42740,6917.895,95.438,540.53,538.99,0.0
53633.0,STARLINK-4593,PAYLOAD,2023-06-04 01:11:54,15.08838373,0.0001118,53.2162,76.5918,91.0695,269.0425,2.7753e-05,1.54e-06,0.0,0 STARLINK-4593,1 53633U 22104AX  23155.04993834  .00000154  00000-0  27753-4 0  9993,2 53633  53.2162  76.5918 0001118  91.0695 269.0425 15.08838373 43470,6917.885,95.438,540.524,538.977,0.0
53633.0,STARLINK-4593,PAYLOAD,2023-06-04 21:51:55,15.08840139,0.000116,53.2167,72.7264,90.9767,269.1358,1.284e-05,-8.3e-07,0.0,0 STARLINK-4593,1 53633U 22104AX  23155.91105890 -.00000083  00000-0  12840-4 0  9999,2 53633  53.2167  72.7264 0001160  90.9767 269.1358 15.08840139 43606,6917.88,95.438,540.547,538.942,0.0
53633.0,STARLINK-4593,PAYLOAD,2023-06-05 04:13:27,15.08847591,0.000115,53.2166,71.5371,84.8716,275.2407,7.0803e-05,8.39e-06,0.0,0 STARLINK-4593,1 53633U 22104AX  23156.17601185  .00000839  00000-0  70803-4 0  9997,2 53633  53.2166  71.5371 0001150  84.8716 275.2407 15.08847591 42955,6917.857,95.437,540.518,538.927,0.0
53633.0,STARLINK-4593,PAYLOAD,2023-06-05 18:31:56,15.08840365,0.0001388,53.2166,68.8592,95.1298,264.9852,-4.3431e-05,-9.79e-06,0.0,0 STARLINK-4593,1 53633U 22104AX  23156.77218088 -.00000979  00000-0 -43431-4 0  9993,2 53633  53.2166  68.8592 0001388  95.1298 264.9852 15.08840365 43730,6917.879,95.438,540.704,538.784,0.0
53633.0,STARLINK-4593,PAYLOAD,2023-06-06 04:04:14,15.08845207,0.0001207,53.2177,67.0767,85.2512,274.8618,7.6632e-05,9.32e-06,0.0,0 STARLINK-4593,1 53633U 22104AX  23157.16961366  .00000932  00000-0  76632-4 0  9997,2 53633  53.2177  67.0767 0001207  85.2512 274.8618 15.08845207 43107,6917.864,95.437,540.564,538.894,0.0
53633.0,STARLINK-4593,PAYLOAD,2023-06-06 18:22:43,15.08832489,0.0001334,53.218,64.4024,87.0964,273.0181,-1.6771e-05,-5.55e-06,0.0,0 STARLINK-4593,1 53633U 22104AX  23157.76578648 -.00000555  00000-0 -16771-4 0  9991,2 53633  53.2180  64.4024 0001334  87.0964 273.0181 15.08832489 43193,6917.903,95.438,540.691,538.845,0.0
53633.0,STARLINK-4593,PAYLOAD,2023-06-07 02:19:39,15.08840385,0.0001175,53.2179,62.9126,87.5328,272.5799,-3.4389e-06,-3.43e-06,0.0,0 STARLINK-4593,1 53633U 22104AX  23158.09698084 -.00000343  00000-0 -34389-5 0  9996,2 53633  53.2179  62.9126 0001175  87.5328 272.5799 15.08840385 43248,6917.879,95.438,540.557,538.931,0.0
53633.0,STARLINK-4593,PAYLOAD,2023-06-07 03:55:02,15.08841596,0.0001172,53.2179,62.6147,87.3581,272.7545,4.9759e-06,-2.09e-06,0.0,0 STARLINK-4593,1 53633U 22104AX  23158.16321991 -.00000209  00000-0  49759-5 0  9991,2 53633  53.2179  62.6147 0001172  87.3581 272.7545 15.08841596 43947,6917.876,95.437,540.551,538.93,0.0
53633.0,STARLINK-4593,PAYLOAD,2023-06-07 18:13:31,15.08832649,0.0001083,53.2177,59.9377,94.1806,265.931,-2.823e-05,-7.37e-06,0.0,0 STARLINK-4593,1 53633U 22104AX  23158.75938834 -.00000737  00000-0 -28230-4 0  9993,2 53633  53.2177  59.9377 0001083  94.1806 265.9310 15.08832649 43343,6917.903,95.438,540.517,539.019,0.0
